[{"OBJECT_NAME":"WEILAI 1R","OBJECT_ID":"2019-093F","EPOCH":"2026-03-06T19:18:12.771072","MEAN_MOTION":14.99711127,"ECCENTRICITY":0.001189,"INCLINATION":97.7943,"RA_OF_ASC_NODE":155.598,"ARG_OF_PERICENTER":34.3027,"MEAN_ANOMALY":325.8962,"EPHEMERIS_TYPE":0,"CLASSIFICATION_TYPE":"U","NORAD_CAT_ID":44884,"ELEMENT_SET_NO":999,"REV_AT_EPOCH":33707,"BSTAR":0.0005776,"MEAN_MOTION_DOT":7.082e-5,"MEAN_MOTION_DDOT":0},{"OBJECT_NAME":"FLORIPASAT-1","OBJECT_ID":"2019-093G","EPOCH":"2026-03-06T20:29:12.136416","MEAN_MOTION":15.02660876,"ECCENTRICITY":0.0013062,"INCLINATION":97.7921,"RA_OF_ASC_NODE":159.4488,"ARG_OF_PERICENTER":61.7506,"MEAN_ANOMALY":298.5035,"EPHEMERIS_TYPE":0,"CLASSIFICATION_TYPE":"U","NORAD_CAT_ID":44885,"ELEMENT_SET_NO":999,"REV_AT_EPOCH":33727,"BSTAR":0.00059932,"MEAN_MOTION_DOT":7.948e-5,"MEAN_MOTION_DDOT":0},{"OBJECT_NAME":"SHUNTIAN","OBJECT_ID":"2019-093H","EPOCH":"2026-03-06T20:42:47.956320","MEAN_MOTION":14.94587459,"ECCENTRICITY":0.001299,"INCLINATION":97.8019,"RA_OF_ASC_NODE":154.5948,"ARG_OF_PERICENTER":51.468,"MEAN_ANOMALY":308.7702,"EPHEMERIS_TYPE":0,"CLASSIFICATION_TYPE":"U","NORAD_CAT_ID":44886,"ELEMENT_SET_NO":999,"REV_AT_EPOCH":33689,"BSTAR":0.00036665,"MEAN_MOTION_DOT":3.916e-5,"MEAN_MOTION_DDOT":0},{"OBJECT_NAME":"2019-093L","OBJECT_ID":"2019-093L","EPOCH":"2026-03-06T20:45:26.290368","MEAN_MOTION":14.93911707,"ECCENTRICITY":0.0012666,"INCLINATION":97.7612,"RA_OF_ASC_NODE":145.359,"ARG_OF_PERICENTER":37.4941,"MEAN_ANOMALY":322.716,"EPHEMERIS_TYPE":0,"CLASSIFICATION_TYPE":"U","NORAD_CAT_ID":44889,"ELEMENT_SET_NO":999,"REV_AT_EPOCH":33652,"BSTAR":0.00017846,"MEAN_MOTION_DOT":1.843e-5,"MEAN_MOTION_DDOT":0},{"OBJECT_NAME":"ELEKTRO-L 3","OBJECT_ID":"2019-095A","EPOCH":"2026-03-06T17:45:38.749248","MEAN_MOTION":1.00270371,"ECCENTRICITY":0.0001638,"INCLINATION":0.0441,"RA_OF_ASC_NODE":316.7449,"ARG_OF_PERICENTER":18.7176,"MEAN_ANOMALY":171.344,"EPHEMERIS_TYPE":0,"CLASSIFICATION_TYPE":"U","NORAD_CAT_ID":44903,"ELEMENT_SET_NO":999,"REV_AT_EPOCH":2268,"BSTAR":0,"MEAN_MOTION_DOT":-9.9e-7,"MEAN_MOTION_DDOT":0},{"OBJECT_NAME":"GONETS-M 14","OBJECT_ID":"2019-096A","EPOCH":"2026-03-06T19:34:08.440608","MEAN_MOTION":12.42867144,"ECCENTRICITY":0.0013349,"INCLINATION":82.5267,"RA_OF_ASC_NODE":148.1087,"ARG_OF_PERICENTER":22.8128,"MEAN_ANOMALY":337.3542,"EPHEMERIS_TYPE":0,"CLASSIFICATION_TYPE":"U","NORAD_CAT_ID":44905,"ELEMENT_SET_NO":999,"REV_AT_EPOCH":28096,"BSTAR":-0.00028236,"MEAN_MOTION_DOT":-2.9e-7,"MEAN_MOTION_DDOT":0},{"OBJECT_NAME":"GONETS-M 15","OBJECT_ID":"2019-096B","EPOCH":"2026-03-06T20:16:37.003008","MEAN_MOTION":12.42867053,"ECCENTRICITY":0.0015756,"INCLINATION":82.5287,"RA_OF_ASC_NODE":148.5352,"ARG_OF_PERICENTER":44.3326,"MEAN_ANOMALY":315.9013,"EPHEMERIS_TYPE":0,"CLASSIFICATION_TYPE":"U","NORAD_CAT_ID":44906,"ELEMENT_SET_NO":999,"REV_AT_EPOCH":28093,"BSTAR":-0.00057338,"MEAN_MOTION_DOT":-6.9e-7,"MEAN_MOTION_DDOT":0},{"OBJECT_NAME":"GONETS-M 16","OBJECT_ID":"2019-096C","EPOCH":"2026-03-06T20:56:50.428896","MEAN_MOTION":12.42888332,"ECCENTRICITY":0.001218,"INCLINATION":82.5232,"RA_OF_ASC_NODE":147.5192,"ARG_OF_PERICENTER":84.6723,"MEAN_ANOMALY":275.5746,"EPHEMERIS_TYPE":0,"CLASSIFICATION_TYPE":"U","NORAD_CAT_ID":44907,"ELEMENT_SET_NO":999,"REV_AT_EPOCH":28092,"BSTAR":0.00084166,"MEAN_MOTION_DOT":1.27e-6,"MEAN_MOTION_DDOT":0},{"OBJECT_NAME":"RS-44 & BREEZE-KM R/B","OBJECT_ID":"2019-096E","EPOCH":"2026-03-06T10:23:18.816288","MEAN_MOTION":12.79747385,"ECCENTRICITY":0.02180633,"INCLINATION":82.5196,"RA_OF_ASC_NODE":47.9789,"ARG_OF_PERICENTER":24.9195,"MEAN_ANOMALY":336.2247,"EPHEMERIS_TYPE":0,"CLASSIFICATION_TYPE":"U","NORAD_CAT_ID":44909,"ELEMENT_SET_NO":999,"REV_AT_EPOCH":28920,"BSTAR":-3.7596539e-5,"MEAN_MOTION_DOT":2.0e-8,"MEAN_MOTION_DDOT":0},{"OBJECT_NAME":"JILIN-1 KUANFU 01","OBJECT_ID":"2020-003A","EPOCH":"2026-03-06T19:09:47.901312","MEAN_MOTION":15.10051559,"ECCENTRICITY":0.0008297,"INCLINATION":97.5106,"RA_OF_ASC_NODE":141.768,"ARG_OF_PERICENTER":298.0711,"MEAN_ANOMALY":61.9679,"EPHEMERIS_TYPE":0,"CLASSIFICATION_TYPE":"U","NORAD_CAT_ID":45016,"ELEMENT_SET_NO":999,"REV_AT_EPOCH":33987,"BSTAR":0.00030089,"MEAN_MOTION_DOT":4.836e-5,"MEAN_MOTION_DDOT":0},{"OBJECT_NAME":"XINGYUN-2 01","OBJECT_ID":"2020-028A","EPOCH":"2026-03-06T20:46:53.163840","MEAN_MOTION":15.11293569,"ECCENTRICITY":0.0008743,"INCLINATION":97.4838,"RA_OF_ASC_NODE":60.3513,"ARG_OF_PERICENTER":186.1723,"MEAN_ANOMALY":173.9401,"EPHEMERIS_TYPE":0,"CLASSIFICATION_TYPE":"U","NORAD_CAT_ID":45602,"ELEMENT_SET_NO":999,"REV_AT_EPOCH":31938,"BSTAR":0.00017055,"MEAN_MOTION_DOT":2.81e-5,"MEAN_MOTION_DDOT":0},{"OBJECT_NAME":"XINGYUN-2 02","OBJECT_ID":"2020-028B","EPOCH":"2026-03-06T19:51:11.489184","MEAN_MOTION":15.11061677,"ECCENTRICITY":0.0009386,"INCLINATION":97.5106,"RA_OF_ASC_NODE":73.638,"ARG_OF_PERICENTER":263.5156,"MEAN_ANOMALY":96.5005,"EPHEMERIS_TYPE":0,"CLASSIFICATION_TYPE":"U","NORAD_CAT_ID":45603,"ELEMENT_SET_NO":999,"REV_AT_EPOCH":31937,"BSTAR":0.00017506,"MEAN_MOTION_DOT":2.867e-5,"MEAN_MOTION_DDOT":0},{"OBJECT_NAME":"HAIYANG-1D","OBJECT_ID":"2020-036A","EPOCH":"2026-03-06T20:04:13.613952","MEAN_MOTION":14.34200843,"ECCENTRICITY":0.0003641,"INCLINATION":98.4474,"RA_OF_ASC_NODE":9.7887,"ARG_OF_PERICENTER":91.154,"MEAN_ANOMALY":269.0062,"EPHEMERIS_TYPE":0,"CLASSIFICATION_TYPE":"U","NORAD_CAT_ID":45721,"ELEMENT_SET_NO":999,"REV_AT_EPOCH":30030,"BSTAR":3.6802e-5,"MEAN_MOTION_DOT":6.0e-7,"MEAN_MOTION_DDOT":0},{"OBJECT_NAME":"M2 PATHFINDER","OBJECT_ID":"2020-037E","EPOCH":"2026-03-06T11:40:01.439328","MEAN_MOTION":15.04148584,"ECCENTRICITY":0.0012368,"INCLINATION":97.8146,"RA_OF_ASC_NODE":255.5728,"ARG_OF_PERICENTER":136.928,"MEAN_ANOMALY":223.2916,"EPHEMERIS_TYPE":0,"CLASSIFICATION_TYPE":"U","NORAD_CAT_ID":45727,"ELEMENT_SET_NO":999,"REV_AT_EPOCH":31005,"BSTAR":0.00029901502,"MEAN_MOTION_DOT":4.091e-5,"MEAN_MOTION_DDOT":0},{"OBJECT_NAME":"GAOFEN DUOMO (GFDM)","OBJECT_ID":"2020-042A","EPOCH":"2026-03-06T19:58:56.205408","MEAN_MOTION":14.76832509,"ECCENTRICITY":0.0012315,"INCLINATION":97.7872,"RA_OF_ASC_NODE":129.3862,"ARG_OF_PERICENTER":47.4132,"MEAN_ANOMALY":312.8115,"EPHEMERIS_TYPE":0,"CLASSIFICATION_TYPE":"U","NORAD_CAT_ID":45856,"ELEMENT_SET_NO":999,"REV_AT_EPOCH":30590,"BSTAR":0.00010992,"MEAN_MOTION_DOT":7.23e-6,"MEAN_MOTION_DDOT":0},{"OBJECT_NAME":"ZIYUAN 3-03 (ZY 3-03)","OBJECT_ID":"2020-051A","EPOCH":"2026-03-06T20:15:47.632320","MEAN_MOTION":15.2132911,"ECCENTRICITY":0.0004857,"INCLINATION":97.2936,"RA_OF_ASC_NODE":136.8257,"ARG_OF_PERICENTER":328.3538,"MEAN_ANOMALY":31.7405,"EPHEMERIS_TYPE":0,"CLASSIFICATION_TYPE":"U","NORAD_CAT_ID":45939,"ELEMENT_SET_NO":999,"REV_AT_EPOCH":31178,"BSTAR":0.00020795,"MEAN_MOTION_DOT":4.589e-5,"MEAN_MOTION_DDOT":0},{"OBJECT_NAME":"TYVAK-0172","OBJECT_ID":"2020-059C","EPOCH":"2026-03-06T15:06:45.280800","MEAN_MOTION":15.68995463,"ECCENTRICITY":0.00037417,"INCLINATION":97.7224,"RA_OF_ASC_NODE":307.7513,"ARG_OF_PERICENTER":60.9024,"MEAN_ANOMALY":299.2611,"EPHEMERIS_TYPE":0,"CLASSIFICATION_TYPE":"U","NORAD_CAT_ID":46267,"ELEMENT_SET_NO":999,"REV_AT_EPOCH":30264,"BSTAR":0.0023981558,"MEAN_MOTION_DOT":0.00285198,"MEAN_MOTION_DDOT":0}]
