WEILAI 1R               
1 44884U 19093F   26065.80431448  .00007082  00000+0  57760-3 0  9995
2 44884  97.7943 155.5980 0011890  34.3027 325.8962 14.99711127337077
FLORIPASAT-1            
1 44885U 19093G   26065.85361269  .00007948  00000+0  59932-3 0  9998
2 44885  97.7921 159.4488 0013062  61.7506 298.5035 15.02660876337277
SHUNTIAN                
1 44886U 19093H   26065.86305505  .00003916  00000+0  36665-3 0  9990
2 44886  97.8019 154.5948 0012990  51.4680 308.7702 14.94587459336899
2019-093L               
1 44889U 19093L   26065.86488762  .00001843  00000+0  17846-3 0  9997
2 44889  97.7612 145.3590 0012666  37.4941 322.7160 14.93911707336525
ELEKTRO-L 3             
1 44903U 19095A   26065.74003182 -.00000099  00000+0  00000+0 0  9995
2 44903   0.0441 316.7449 0001638  18.7176 171.3440  1.00270371 22682
GONETS-M 14             
1 44905U 19096A   26065.81537547 -.00000029  00000+0 -28236-3 0  9992
2 44905  82.5267 148.1087 0013349  22.8128 337.3542 12.42867144280967
GONETS-M 15             
1 44906U 19096B   26065.84487272 -.00000069  00000+0 -57338-3 0  9994
2 44906  82.5287 148.5352 0015756  44.3326 315.9013 12.42867053280933
GONETS-M 16             
1 44907U 19096C   26065.87280589  .00000127  00000+0  84166-3 0  9992
2 44907  82.5232 147.5192 0012180  84.6723 275.5746 12.42888332280927
RS-44 & BREEZE-KM R/B   
1 44909U 19096E   26065.43285667  .00000002  00000+0 -37597-4 0  9998
2 44909  82.5196  47.9789 0218063  24.9195 336.2247 12.79747385289204
JILIN-1 KUANFU 01       
1 45016U 20003A   26065.79847108  .00004836  00000+0  30089-3 0  9997
2 45016  97.5106 141.7680 0008297 298.0711  61.9679 15.10051559339877
XINGYUN-2 01            
1 45602U 20028A   26065.86589310  .00002810  00000+0  17055-3 0  9999
2 45602  97.4838  60.3513 0008743 186.1723 173.9401 15.11293569319387
XINGYUN-2 02            
1 45603U 20028B   26065.82721631  .00002867  00000+0  17506-3 0  9993
2 45603  97.5106  73.6380 0009386 263.5156  96.5005 15.11061677319372
HAIYANG-1D              
1 45721U 20036A   26065.83626868  .00000060  00000+0  36802-4 0  9994
2 45721  98.4474   9.7887 0003641  91.1540 269.0062 14.34200843300300
M2 PATHFINDER           
1 45727U 20037E   26065.48612777  .00004091  00000+0  29902-3 0  9996
2 45727  97.8146 255.5728 0012368 136.9280 223.2916 15.04148584310059
GAOFEN DUOMO (GFDM)     
1 45856U 20042A   26065.83259497  .00000723  00000+0  10992-3 0  9997
2 45856  97.7872 129.3862 0012315  47.4132 312.8115 14.76832509305907
ZIYUAN 3-03 (ZY 3-03)   
1 45939U 20051A   26065.84430130  .00004589  00000+0  20795-3 0  9991
2 45939  97.2936 136.8257 0004857 328.3538  31.7405 15.21329110311781
TYVAK-0172              
1 46267U 20059C   26065.62969075  .00285198  00000+0  23982-2 0  9992
2 46267  97.7224 307.7513 0003741  60.9024 299.2611 15.68995463302641
